STARLINK-1527           
1 46048U 20055X   26068.53013343  .00011339  00000+0  39455-3 0  9993
2 46048  53.1608 114.6784 0001302 108.7364 251.3778 15.30184962309029
NUSHSAT1                
1 63211U 25052B   26068.64700493  .00023034  00000+0  74857-3 0  9997
2 63211  97.4095 325.7239 0005501  84.7512 275.4357 15.31903202 54882
